COSMOS 2251 DEB         
1 37500U 93036BMD 17345.60857443  .00001094  00000-0  48091-4 0  9993
2 37500  73.9605 291.5723 0184464 124.0487 237.8375 15.09490693453103
